BEIDOU-3S IGSO-1S       
1 40549U 15019A   26183.80025122 -.00000190  00000+0  00000+0 0  9997
2 40549  49.1798 295.2769 0076860 219.1125 144.2493  1.00680073 41232
NAVSTAR 74 (USA 262)    
1 40730U 15033A   26187.66634525 -.00000008  00000+0  00000+0 0  9994
2 40730  53.9675 266.2830 0115221  30.2724 330.4554  2.00555302 80383
BEIDOU-3S M2S           
1 40748U 15037A   26188.19050975 -.00000063  00000+0  00000+0 0  9998
2 40748  54.8517 301.3582 0009202 257.5406 102.3800  1.86232412 74496
BEIDOU-3S M1S           
1 40749U 15037B   26188.39547168 -.00000063  00000+0  00000+0 0  9996
2 40749  54.8483 301.3380 0002930  63.4296 296.6235  1.86254849 74506
GSAT0206 (GALILEO 10)   
1 40890U 15045B   26184.88161184  .00000074  00000+0  00000+0 0  9993
2 40890  54.9411 221.1433 0001957 327.0241  33.0412  1.70473649 67326
BEIDOU-3S IGSO-2S       
1 40938U 15053A   26187.66468093 -.00000111  00000+0  00000+0 0  9996
2 40938  49.1915 258.5511 0065881 192.9035 166.4706  1.00255328 39546
NAVSTAR 75 (USA 265)    
1 41019U 15062A   26188.22016026 -.00000052  00000+0  00000+0 0  9999
2 41019  56.9729  30.0400 0112528 230.9250 128.1184  2.00566969 78230
GSAT-15                 
1 41028U 15065A   26188.60006178 -.00000243  00000+0  00000+0 0  9993
2 41028   0.0252 271.1950 0003864 176.6977 147.1967  1.00272563 39008
GSAT0209 (GALILEO 12)   
1 41174U 15079A   26185.63643029  .00000000  00000+0  00000+0 0  9992
2 41174  55.8369 100.7834 0005067 348.6925  11.3144  1.70473787 65079
GSAT0208 (GALILEO 11)   
1 41175U 15079B   26182.92381336 -.00000013  00000+0  00000+0 0  9997
2 41175  55.8336 100.8547 0004614 354.4374   5.5610  1.70473736 65444
IRNSS-1E                
1 41241U 16003A   26187.84511535 -.00000302  00000+0  00000+0 0  9992
2 41241  33.2756  59.4648 0019195 178.8904 102.4500  1.00269537 38273
NAVSTAR 76 (USA 266)    
1 41328U 16007A   26188.31188490 -.00000019  00000+0  00000+0 0  9990
2 41328  55.5361  88.6618 0096589 247.6287 111.3827  2.00575770 76240
COSMOS 2514 [GLONASS-M] 
1 41330U 16008A   26187.99410816 -.00000047  00000+0  00000+0 0  9998
2 41330  65.0087 312.3272 0012034 200.2262 159.7396  2.13102582 81040
BEIDOU-2 IGSO-6         
1 41434U 16021A   26177.11016981 -.00000145  00000+0  00000+0 0  9995
2 41434  60.2385  37.9495 0057558 231.0163 137.2672  1.00258926 37578
IRNSS-1G                
1 41469U 16027A   26187.66773700 -.00000321  00000+0  00000+0 0  9995
2 41469   5.2425  97.0252 0005822   7.9551 189.6780  1.00277498 37370
GSAT0211 (GALILEO 14)   
1 41549U 16030A   26187.74023406  .00000078  00000+0  00000+0 0  9996
2 41549  55.0912 221.1568 0003151 320.2571  39.7906  1.70473798 63001
GSAT0210 (GALILEO 13)   
1 41550U 16030B   26188.58407305  .00000081  00000+0  00000+0 0  9999
2 41550  55.0891 221.1315 0007820 257.5040 102.4803  1.70473798 63014
BEIDOU-2 G7             
1 41586U 16037A   26188.59468644 -.00000338  00000+0  00000+0 0  9995
2 41586   1.7673  69.4614 0006442   6.0626 174.5905  1.00266347  7092
EUTELSAT 117 WEST B     
1 41589U 16038B   26188.54958468  .00000003  00000+0  00000+0 0  9990
2 41589   0.0059 155.0633 0000264 311.2488 260.0482  1.00273071 36861
GSAT0207 (GALILEO 15)   
1 41859U 16069A   26187.10285798  .00000000  00000+0  00000+0 0  9991
2 41859  55.5088 100.5629 0004433 341.1065  18.8968  1.70473349 59728
GSAT0212 (GALILEO 16)   
1 41860U 16069B   26188.12942102 -.00000003  00000+0  00000+0 0  9999
2 41860  55.5076 100.5296 0004380   9.6218 350.4046  1.70473650 59990
GSAT0213 (GALILEO 17)   
1 41861U 16069C   26187.32341799  .00000000  00000+0  00000+0 0  9992
2 41861  55.5092 100.5598 0004628 315.4701  44.5123  1.70474232 59842
GSAT0214 (GALILEO 18)   
1 41862U 16069D   26187.46967801 -.00000001  00000+0  00000+0 0  9998
2 41862  55.5080 100.5485 0003807 326.3091  33.6861  1.70473830 59971
SES-15                  
1 42709U 17026A   26188.39924428  .00000075  00000+0  00000+0 0  9994
2 42709   0.0247 324.3391 0001027 186.0407 149.5634  1.00271208  7637
QZS-2 (MICHIBIKI-2)     
1 42738U 17028A   26188.49126786 -.00000100  00000+0  00000+0 0  9990
2 42738  39.3970 242.8544 0758232 269.5081  92.2444  1.00278715  7838
QZS-3 (MICHIBIKI-3)     
1 42917U 17048A   26188.02757977 -.00000334  00000+0  00000+0 0  9991
2 42917   0.0805 222.7686 0001887 245.8122 313.2924  1.00263910 32459
COSMOS 2522 [GLONASS-M] 
1 42939U 17055A   26187.36252817  .00000112  00000+0  00000+0 0  9995
2 42939  64.0804 191.2316 0010922 240.7707 119.1473  2.13102015 68381
QZS-4 (MICHIBIKI-4)     
1 42965U 17062A   26188.31318925 -.00000308  00000+0  00000+0 0  9999
2 42965  40.0971 343.2309 0747233 268.3911 285.0425  1.00292859 32006
BEIDOU-3 M1             
1 43001U 17069A   26188.00042395 -.00000042  00000+0  00000+0 0  9994
2 43001  56.7085  62.4329 0009514 327.3765  32.6283  1.86231364 58976
BEIDOU-3 M2             
1 43002U 17069B   26187.93921887 -.00000042  00000+0  00000+0 0  9998
2 43002  56.7078  62.4704 0008592 355.0487   5.0065  1.86231060 58964
GSAT0215 (GALILEO 19)   
1 43055U 17079A   26185.61298966  .00000074  00000+0  00000+0 0  9999
2 43055  55.0696 221.0270 0003550 263.9168  96.1170  1.70474500 53282
